{
  "EpochDate": "2018-12-28", // Date of simulation start (YYYY-MM-DD)
  "centralBody": 3, // 0: Sol, 3: Earth, 5: Jupiter
  "objects": [
    {
      "radius": 5,
      "dataType": 2, // 0: Orbital elements, 1: state vector, 2: TLEs
      "TLELine1": "0 LKW-2",
      "TLELine2": "1 43080U 17084A   18361.87025894  .00000517  00000-0  24731-4 0  9991",
      "TLELine3": "2 43080  97.4278  76.9681 0011321  55.9035  78.0682 15.23341225 56286"
    },
    {
      "radius": 5,
      "dataType": 2, // 0: Orbital elements, 1: state vector, 2: TLEs
      "TLELine1": "0 CORVUS BC3",
      "TLELine2": "1 43118U 18004H   18361.90689511 +.00000589 +00000-0 +28432-4 0  9993",
      "TLELine3": "2 43118 097.5103 064.6456 0011782 131.9275 228.2968 15.22561114053184"
    },
    {
      "radius": 5,
      "dataType": 2, // 0: Orbital elements, 1: state vector, 2: TLEs
      "TLELine1": "0 FLOCK 3P 57",
      "TLELine2": "1 41978U 17008AG  18361.88165882 +.00001315 +00000-0 +55660-4 0  9996",
      "TLELine3": "2 41978 097.4292 065.4770 0008825 040.3233 319.8657 15.24938325103466"
    },
    {
      "radius": 5,
      "dataType": 2, // 0: Orbital elements, 1: state vector, 2: TLEs
      "TLELine1": "0 FLOCK 3P 43",
      "TLELine2": "1 42007U 17008BM  18361.94822563 +.00001498 +00000-0 +62858-4 0  9992",
      "TLELine3": "2 42007 097.4302 065.5741 0008803 058.9327 301.2774 15.25027423103639"
    },
    {
      "radius": 5,
      "dataType": 2, // 0: Orbital elements, 1: state vector, 2: TLEs
      "TLELine1": "0 XJS A",
      "TLELine2": "1 43518U 18054A   18361.77753755 -.00000040  00000-0  00000+0 0  9998",
      "TLELine3": "2 43518  35.0221 218.8444 0004000 107.9093 341.1134 15.28613144 28114"
    },
    {
      "radius": 5,
      "dataType": 2, // 0: Orbital elements, 1: state vector, 2: TLEs
      "TLELine1": "0 FLOCK 3P 75",
      "TLELine2": "1 41979U 17008AH  18361.74976466  .00001089  00000-0  46600-4 0  9992",
      "TLELine3": "2 41979  97.4316  65.5535 0009004  43.8212 316.3739 15.24939982103596"
    },
    {
      "radius": 5,
      "dataType": 2, // 0: Orbital elements, 1: state vector, 2: TLEs
      "TLELine1": "0 YAOGAN 26",
      "TLELine2": "1 40362U 14088A   18361.85283262  .00000761  00000-0  31849-4 0  9994",
      "TLELine3": "2 40362  97.3073  75.4760 0006208 114.2898 347.6776 15.26540162222989"
    },
    {
      "radius": 5,
      "dataType": 2, // 0: Orbital elements, 1: state vector, 2: TLEs
      "TLELine1": "0 FLOCK 3P 32",
      "TLELine2": "1 42023U 17008CD  18361.94791932 +.00001314 +00000-0 +55607-4 0  9996",
      "TLELine3": "2 42023 097.4291 065.5449 0008713 040.0593 320.1285 15.24944098103638"
    },
    {
      "radius": 5,
      "dataType": 2, // 0: Orbital elements, 1: state vector, 2: TLEs
      "TLELine1": "0 FLOCK 2P 7",
      "TLELine2": "1 41615U 16040S   18361.89203901 +.00001940 +00000-0 +79751-4 0  9996",
      "TLELine3": "2 41615 097.3939 064.3889 0008594 281.3085 078.7188 15.25355289139759"
    },
    {
      "radius": 5,
      "dataType": 2, // 0: Orbital elements, 1: state vector, 2: TLEs
      "TLELine1": "0 FLOCK 2P 1",
      "TLELine2": "1 41617U 16040U   18361.95106944 +.00002293 +00000-0 +94507-4 0  9992",
      "TLELine3": "2 41617 097.3960 064.6605 0008594 280.0951 079.9317 15.25079800139762"
    },
    {
      "radius": 5,
      "dataType": 2, // 0: Orbital elements, 1: state vector, 2: TLEs
      "TLELine1": "0 FLOCK 3P 84",
      "TLELine2": "1 42021U 17008CB  18361.87895723 +.00001338 +00000-0 +56592-4 0  9999",
      "TLELine3": "2 42021 097.4315 065.6714 0009208 042.8973 317.2981 15.24943686103464"
    },
    {
      "radius": 5,
      "dataType": 2, // 0: Orbital elements, 1: state vector, 2: TLEs
      "TLELine1": "0 FLOCK 3P 70",
      "TLELine2": "1 41980U 17008AJ  18361.68323189 +.00000871 +00000-0 +37859-4 0  9999",
      "TLELine3": "2 41980 097.4318 065.4980 0008958 043.7839 316.4108 15.24932797103435"
    },
    {
      "radius": 5,
      "dataType": 2, // 0: Orbital elements, 1: state vector, 2: TLEs
      "TLELine1": "0 CARTOSAT 2D",
      "TLELine2": "1 41948U 17008A   18361.74710065 +.00000413 +00000-0 +22793-4 0  9996",
      "TLELine3": "2 41948 097.4208 060.4110 0008359 075.6889 284.5266 15.19265326103320"
    },
    {
      "radius": 5,
      "dataType": 2, // 0: Orbital elements, 1: state vector, 2: TLEs
      "TLELine1": "0 WORLDVIEW 1",
      "TLELine2": "1 32060U 07041A   18361.93216037 +.00000635 +00000-0 +28814-4 0  9994",
      "TLELine3": "2 32060 097.3851 118.9281 0001767 057.5617 059.0657 15.24353204627374"
    },
    {
      "radius": 5,
      "dataType": 2, // 0: Orbital elements, 1: state vector, 2: TLEs
      "TLELine1": "0 DAVINCI",
      "TLELine2": "1 43857U 18104J   18361.94986721  .00000041  00000-0  00000+0 0  9990",
      "TLELine3": "2 43857  85.0328 170.6076 0014394 256.0036 103.9696 15.20548098  1765"
    },
    {
      "radius": 5,
      "dataType": 2, // 0: Orbital elements, 1: state vector, 2: TLEs
      "TLELine1": "0 OBJECT K",
      "TLELine2": "1 43858U 18104K   18361.94896833  .00000041  00000-0  00000+0 0  9995",
      "TLELine3": "2 43858  85.0302 170.6020 0014202 249.9233 110.0527 15.20658135  1761"
    },
    {
      "radius": 5,
      "dataType": 2, // 0: Orbital elements, 1: state vector, 2: TLEs
      "TLELine1": "0 NUSAT 2",
      "TLELine2": "1 41558U 16033C   18361.89842376 +.00001139 +00000-0 +43516-4 0  9999",
      "TLELine3": "2 41558 097.4304 085.8942 0012953 183.9214 176.1926 15.28643344143736"
    },
    {
      "radius": 5,
      "dataType": 2, // 0: Orbital elements, 1: state vector, 2: TLEs
      "TLELine1": "0 RAPIS-1",
      "TLELine2": "1 43932U 19003A   19019.93435902 +.00001085 +00000-0 +52673-4 0  9990",
      "TLELine3": "2 43932 097.3042 082.1577 0009031 254.0637 191.8603 15.20515818000282"
    },
    {
      "radius": 5,
      "dataType": 2, // 0: Orbital elements, 1: state vector, 2: TLEs
      "TLELine1": "0 OBJECT A",
      "TLELine2": "1 40899U 15049A   18361.76361406  .00000247  00000-0  16198-4 0  9993",
      "TLELine3": "2 40899  97.4579   3.0673 0016843  91.5286  24.1816 15.16152172180939"
    },
    {
      "radius": 5,
      "dataType": 2, // 0: Orbital elements, 1: state vector, 2: TLEs
      "TLELine1": "0 AEROCUBE 11-EAGLESCOUT",
      "TLELine2": "1 43861U 18104N   18361.94555116  .00000041  00000-0  00000+0 0  9995",
      "TLELine3": "2 43861  85.0421 170.6276 0014554 242.3985 117.5817 15.21106492  1760"
    },
    {
      "radius": 5,
      "dataType": 2, // 0: Orbital elements, 1: state vector, 2: TLEs
      "TLELine1": "0 OBJECT K",
      "TLELine2": "1 43728U 18096K   18361.94495378 +.00001473 +00000-0 +59587-4 0  9999",
      "TLELine3": "2 43728 097.4826 066.9734 0017442 221.2139 138.7784 15.26218054004382"
    },
    {
      "radius": 5,
      "dataType": 2, // 0: Orbital elements, 1: state vector, 2: TLEs
      "TLELine1": "0 CHUBUSAT 1",
      "TLELine2": "1 40300U 14070C   18361.75135523  .00000560  00000-0  27587-4 0  9993",
      "TLELine3": "2 40300  97.3476  75.1616 0019051 306.8335 170.7259 15.21847542229716"
    }
  ]
}